NOAA 2 (ITOS-D)
1 06235U 72082A   26092.92446517 -.00000020  00000-0  16771-3 0  9990
2 06235 102.0141 110.6568 0003743 317.2668 104.3355 12.53212741445523
SOLRAD-7B
1 01291U 65016D   26092.96470252  .00000038  00000-0  67116-4 0  9991
2 01291  70.0810  36.1854 0023016 224.9782 134.9460 13.94966328106212
OSCAR-7 (AO-7)
1 07530U 74089B   26092.83955300 -.00000042  00000-0  25681-4 0  9998
2 07530 101.9952 105.2895 0011871 275.0015 262.3651 12.53696924351070
UOSAT-2 (UO-11)
1 14781U 84021B   26092.90785434  .00002900  00000-0  30175-3 0  9995
2 14781  97.7988  59.3652 0009167  76.1014 284.1223 14.90594923245912
FLTSATCOM-7 (USA-20)
1 17181U 86096A   26092.19211583 -.00000083  00000-0  00000-0 0  9998
2 17181  12.7629 340.5621 0042978 329.5679 227.4286  0.98926846151212
FLTSATCOM-8 (USA-46)
1 20253U 89077A   26092.56114193 -.00000371  00000-0  00000-0 0  9994
2 20253  12.4427 351.6176 0007964 357.5703 169.5093  1.00272525259800
OSCAR 16 (PACSAT)
1 20439U 90005D   26092.38502994  .00000215  00000-0  93687-4 0  9996
2 20439  98.8607 126.2581 0011709  94.1927 279.0926 14.33911747891073
LUSAT (LO-19)
1 20442U 90005G   26091.99399193  .00000181  00000-0  81236-4 0  9990
2 20442  98.8915 111.6795 0012617  71.7017 288.5538 14.34097888891474
UFO 2 (USA 95)
1 22787U 93056A   26091.31448668  .00000118  00000-0  00000-0 0  9997
2 22787  11.8722   3.9725 0009117 359.9770 327.6334  1.00277047117772
EYESAT-1 (AO-27)
1 22825U 93061C   26092.41160707  .00000170  00000-0  81692-4 0  9991
2 22825  98.6935 159.8341 0007669 329.4898  30.5837 14.30921189696165
ITAMSAT (IO-26) 
1 22826U 93061D   26092.90286773  .00000197  00000-0  91442-4 0  9991
2 22826  98.6883 160.2354 0007917 309.3696  50.6785 14.31346378696546
UFO 3 (USA 104)
1 23132U 94035A   26092.07405792 -.00000099  00000-0  00000-0 0  9994
2 23132  12.3344   6.1691 0004633 303.9010 258.3477  1.00266852130937
RADIO ROSTO (RS-15)
1 23439U 94085A   26092.90764231 -.00000052  00000-0 -28080-3 0  9998
2 23439  64.8163  64.9609 0153592  17.5388 343.0759 11.27583862287418
UFO 4 (USA 108)
1 23467U 95003A   26092.59142284 -.00000025  00000-0  00000-0 0  9991
2 23467   9.6954  13.4772 0003471 352.9861 209.7707  1.00268998114191
UFO 7 (USA 127)
1 23967U 96042A   26090.20461351 -.00000255  00000-0  00000+0 0  9999
2 23967  11.0429  17.4999 0003702  98.0942 114.7128  1.00238479108703
JAS-2 (FO-29)
1 24278U 96046B   26092.52686088  .00000011  00000-0  50497-4 0  9991
2 24278  98.5340 311.7179 0348942 292.8487  63.6161 13.53270274462934
UFO 8 (USA 138)
1 25258U 98016A   26092.63031028 -.00000196  00000-0  00000-0 0  9995
2 25258  11.0410  23.2170 0007046 277.1281 269.9213  1.00282156103103
TECHSAT-1B (GO-32)
1 25397U 98043D   26092.90399161  .00000128  00000-0  75604-4 0  9994
2 25397  99.0052  83.7742 0002329  80.4696 279.6745 14.24412963440614
ISS (ZARYA)
1 25544U 98067A   26092.84326290  .00011825  00000-0  22447-3 0  9992
2 25544  51.6328 312.9475 0006236 264.7845  95.2432 15.48729122560075
UFO 10 (USA 146)
1 25967U 99063A   26091.17753184 -.00000196  00000-0  00000-0 0  9997
2 25967   9.8452  27.6133 0004481 319.3998 243.4473  1.00268147 96573
PCSAT (NO-44)
1 26931U 01043C   26092.65565425  .00000234  00000-0  11824-3 0  9994
2 26931  67.0494  79.6262 0006844 264.5876  95.4446 14.31924623279639
PROBA-1
1 26958U 01049B   26092.99101264  .00005181  00000-0  33676-3 0  9998
2 26958  97.9629  98.9058 0055874  19.0082 341.3213 15.07189019332299
SAUDISAT-1C (SO-50)
1 27607U 02058C   26092.89659004  .00002263  00000-0  28324-3 0  9992
2 27607  64.5557   1.9028 0075446 276.2114  83.0401 14.82879462253293
CUTE-1 (CO-55)
1 27844U 03031E   26092.94086536  .00000515  00000-0  24210-3 0  9995
2 27844  98.6770 102.4393 0010423  49.3322 310.8761 14.24287323180965
CUBESAT XI-IV (CO-57)
1 27848U 03031J   26092.96203646  .00000424  00000-0  20521-3 0  9994
2 27848  98.6803 102.2335 0010541  65.6826 294.5452 14.23579169180675
MOZHAYETS-4 (RS-22)
1 27939U 03042A   26092.98385894  .00002087  00000-0  33049-3 0  9991
2 27939  98.3452 275.2246 0011966 142.2337   9.3078 14.73325651204477
UFO 11 (USA 174)
1 28117U 03057A   26092.90765428 -.00000105  00000-0  00000-0 0  9991
2 28117   8.8946  34.1889 0003041 320.2285 239.0129  1.00272226 81691
CUBESAT XI-V (CO-58)
1 28895U 05043F   26092.36541762  .00002712  00000-0  43538-3 0  9995
2 28895  98.2878 246.4447 0015318  87.3520 272.9440 14.72420705 90593
CAPE-1
1 31130U 07012P   26092.89251863  .00003077  00000-0  55983-3 0  9999
2 31130  98.4404  65.4053 0082693 306.8943  52.4701 14.64697970  7338
CUTE-1.7+APD II (CO-65)
1 32785U 08021C   26092.92426095  .00010809  00000-0  69226-3 0  9998
2 32785  97.8237  72.8419 0007087 289.4673  70.5789 15.08720869973848
SEEDS-II (CO-66)
1 32791U 08021J   26092.92958658  .00037561  00000-0  12847-2 0  9990
2 32791  97.7524  87.3911 0002652 164.2024 195.9299 15.30160514975776
YUBILEINY (RS-30)
1 32953U 08025A   26092.93187021 -.00000024  00000-0 -24229-3 0  9997
2 32953  82.5047  42.2403 0020363 113.5004 246.8218 12.43176765810342
KKS-1 (KISEKI)
1 33499U 09002H   26092.89176544  .00002737  00000-0  34406-3 0  9991
2 33499  98.1191  14.1566 0008076 164.2885 195.8580 14.82923495925039
SWISSCUBE
1 35932U 09051B   26092.70041211  .00001516  00000-0  30993-3 0  9992
2 35932  98.4082 359.2675 0008082  87.1588 273.0538 14.62326063878124
BEESAT
1 35933U 09051C   26092.46578246  .00001489  00000-0  30939-3 0  9998
2 35933  98.4010 358.8205 0006502  99.2169 260.9767 14.61589817878120
ITUPSAT-1
1 35935U 09051E   26092.45915769  .00001370  00000-0  29347-3 0  9994
2 35935  98.4097 358.0847 0008595 109.6602 250.5526 14.60320016877684
PROBA-2
1 36037U 09059B   26092.44878587  .00000391  00000-0  10168-3 0  9994
2 36037  98.2444 276.8518 0013818 150.1655 210.0333 14.54807864870513
XIWANG-1 (HOPE-1)
1 36122U 09072B   26092.92874781  .00000027  00000-0  18726-3 0  9993
2 36122 100.3954  47.9878 0008029  48.4634 311.7167 13.16436594783106
EWS-G2 (GOES-15)
1 36411U 10008A   26092.90441745  .00000019  00000-0  00000-0 0  9997
2 36411   1.0808  84.3635 0003201  17.7193 118.0304  1.00271605 58885
TISAT-1
1 36799U 10035E   26092.32944134  .00033004  00000-0  11790-2 0  9992
2 36799  98.0672  32.3548 0004043 123.3162 236.8464 15.28768023856107
HORYU-2
1 38340U 12025D   26092.86633629  .00006747  00000-0  69463-3 0  9995
2 38340  98.2052 222.7986 0009185  72.9456 287.2767 14.90597359737501
AAUSAT-3
1 39087U 13009B   26092.78407159  .00000931  00000-0  30991-3 0  9998
2 39087  98.3699 278.2968 0012563  80.3661 279.8946 14.39841052686323
STRAND-1
1 39090U 13009E   26092.44560871  .00000531  00000-0  19302-3 0  9995
2 39090  98.3904 274.5486 0009836  97.0894 263.1411 14.37115936686182
CUBEBUG-1 (CAPITAN BETO)
1 39153U 13018D   26092.90794722  .00007583  00000-0  66624-3 0  9993
2 39153  98.1565 249.5592 0012277  43.7284 316.4906 14.96816994699808
PROBA-V
1 39159U 13021A   26092.91404103  .00000129  00000-0  74436-4 0  9995
2 39159  98.3539  75.2582 0004258   9.9513 350.1750 14.23580545670406
ZACUBE-1 (TSHEPISOSAT)
1 39417U 13066B   26092.87154186  .00006472  00000-0  50685-3 0  9995
2 39417  97.8145  54.8130 0044894 141.4214 219.0233 15.00557960669433
TRITON-1
1 39427U 13066M   26092.98983080  .00005485  00000-0  65935-3 0  9998
2 39427  97.8292   4.5191 0091924 118.8323 242.2156 14.81337465662957
DELFI-N3XT
1 39428U 13066N   26092.72729079  .00012484  00000-0  11054-2 0  9996
2 39428  97.8355  13.1656 0077895  97.4884 263.5194 14.94058976663359
GOMX-1
1 39430U 13066Q   26092.93478336  .00002457  00000-0  37583-3 0  9994
2 39430  97.6544 298.1275 0128323 319.7439  39.4318 14.69192745658864
VELOX-PII
1 39438U 13066Y   26092.29523914  .00004432  00000-0  42467-3 0  9996
2 39438  97.8687  43.6315 0051885 233.4707 126.1728 14.92666776666514
CUBEBUG-2 (LO-74)
1 39440U 13066AA  26092.42132960  .00006359  00000-0  59515-3 0  9993
2 39440  97.8853  41.1411 0056463 279.0842  80.3991 14.93230937665682
FUNCUBE-1 (AO-73)
1 39444U 13066AE  26092.65952559  .00013623  00000-0  86486-3 0  9995
2 39444  97.8224  62.6176 0038942 100.1935 260.3688 15.08362340668275
UWE-3
1 39446U 13066AG  26092.40267529  .00006049  00000-0  52610-3 0  9992
2 39446  97.8630  48.0363 0048805 210.9409 148.8935 14.96422167666249
UNISAT-6
1 40012U 14033C   26092.95357172  .00005492  00000-0  59643-3 0  9996
2 40012  97.7771 247.0533 0044327 317.5740  42.2052 14.87808015634974
DUCHIFAT-1
1 40021U 14033M   26092.37253799  .00098791  00000-0  15702-2 0  9993
2 40021  98.0589 141.6440 0003471 358.3720   1.7519 15.52967252643944
FUNCUBE-3 (EO-79)
1 40025U 14033R   26092.92134419  .00017495  00000-0  88532-3 0  9999
2 40025  98.0998  98.8517 0010606 118.6965 241.5334 15.17045780641611
SMAP
1 40376U 15003A   26092.93495854  .00000818  00000-0  16732-3 0  9994
2 40376  98.1307 101.0858 0001902  96.1137 264.0281 14.63371051596613
LILACSAT-2
1 40908U 15049K   26093.00656103  .00032237  00000-0  59566-3 0  9992
2 40908  97.4755 127.0860 0008325 152.7104 207.4585 15.48976631584101
LAPAN-A2 (IO-86)
1 40931U          25360.30710720  .00000000  00000-0  12800-3 0    00
2 40931   6.0006 332.5373 0012733 338.8432   8.1437 14.79075515    01
LQSAT
1 40958U 15057A   26092.92583615  .00000602  00000-0  92713-4 0  9996
2 40958  97.6670  90.0404 0017614 151.9964 208.2198 14.76680776564203
PRATHAM
1 41783U 16059A   26092.95004378  .00001327  00000-0  24266-3 0  9995
2 41783  97.8327  93.1221 0032776  97.9646 262.5280 14.67087107508486
ALSAT-1N
1 41789U 16059G   26092.99761573  .00001540  00000-0  26813-3 0  9999
2 41789  97.8028  99.6992 0027428  69.5699 290.8449 14.69175979508968
CAS-2T & KS-1Q
1 41847U 16066G   26092.95022275  .00001437  00000-0  21057-3 0  9997
2 41847  98.3852 169.5312 0342253 358.0473   1.9359 14.44535003493931
GOES-16
1 41866U 16071A   26092.87194748 -.00000095  00000-0  00000-0 0  9992
2 41866   0.1708  85.3169 0001937 242.8506  72.2417  1.00272119 34342
